{
  "norad_id": 46749,
  "name": "STARLINK-1911",
  "history": [
    {
      "epoch": "2026-03-28T22:00:01.999584Z",
      "apogee_km": 341.12200635816953,
      "perigee_km": 333.6434692677467,
      "latitude_deg": -53.11099830048659,
      "longitude_deg": -58.96565520214495,
      "height_km": 356.61736769134916,
      "semi_major_axis_km": 6715.519737812958,
      "eccentricity": 0.00055681,
      "inclination_deg": 53.0459,
      "raan_deg": 182.7471,
      "arg_perigee_deg": 15.2425,
      "mean_anomaly_deg": 257.6113,
      "mean_motion_rev_day": 15.77550669
    },
    {
      "epoch": "2026-03-29T06:00:02.998944Z",
      "apogee_km": 340.7462271378172,
      "perigee_km": 333.33535692653095,
      "latitude_deg": 5.6597974982896915,
      "longitude_deg": -91.34066968986657,
      "height_km": 333.7525435626208,
      "semi_major_axis_km": 6715.177792032174,
      "eccentricity": 0.0005518,
      "inclination_deg": 53.0462,
      "raan_deg": 181.0791,
      "arg_perigee_deg": 18.2664,
      "mean_anomaly_deg": 348.892,
      "mean_motion_rev_day": 15.77671167
    }
  ]
}